TIANYAN 01              
1 44881U 19093C   24154.20434671  .00001239  00000+0  15600-3 0  9999
2 44881  97.8283 231.2753 0014667  17.4994 342.6722 14.83709810240828
RS-44 & BREEZE-KM R/B   
1 44909U 19096E   24153.39796240  .00000034  00000+0  81885-4 0  9996
2 44909  82.5193 115.2670 0218702  88.1064 274.5068 12.79730220206952
BY70-2                  
1 45857U 20042B   24154.21930568  .00102183  00000+0  37654-2 0  9998
2 45857  97.9069 246.8109 0011524 246.4606 113.5421 15.27333648212264
SALSAT                  
1 46495U 20068K   24153.46823545  .00006491  00000+0  37149-3 0  9992
2 46495  97.8151 112.3682 0014250  16.1959 343.9723 15.12921574201930
UVSQ-SAT                
1 47438U 21006AB  24154.16363523  .00051635  00000+0  10376-2 0  9998
2 47438  97.3278 214.4600 0005909 248.6043 111.4576 15.46465282186419
LEDSAT                  
1 49069U 21073D   24154.15616822  .00016343  00000+0  66738-3 0  9997
2 49069  97.4383 225.3925 0018393 339.5904  20.4596 15.24316831154166
XW-3 (CAS-9)            
1 50466U 21131B   24154.18300412  .00000724  00000+0  24560-3 0  9996
2 50466  98.5279 239.3221 0004713 157.4935 202.6461 14.39632512127843
TEVEL-3                 
1 50988U 22002E   24154.17467236  .00152480  00000+0  16302-2 0  9991
2 50988  97.3777 229.3285 0001552 183.7130 176.4118 15.63391710132706
TEVEL-8                 
1 50989U 22002F   24154.15089299  .00149450  00000+0  16107-2 0  9995
2 50989  97.3803 229.3954 0001656 180.3022 179.8235 15.63195052132694
TEVEL-5                 
1 50998U 22002Q   24154.15833472  .00192309  00000+0  16119-2 0  9999
2 50998  97.3764 230.6469 0002284 229.3237 130.7827 15.69358138132792
TEVEL-6                 
1 50999U 22002R   24154.16646457  .00189787  00000+0  16091-2 0  9991
2 50999  97.3753 230.6156 0002147 226.4046 133.7038 15.69085916132796
TEVEL-1                 
1 51013U 22002AF  24154.14026434  .00150169  00000+0  16212-2 0  9991
2 51013  97.3772 229.1493 0001380 191.0151 169.1077 15.63149147132690
TEVEL-7                 
1 51062U 22002CG  24154.20213944  .00131559  00000+0  14096-2 0  9996
2 51062  97.3789 229.4251 0001404 193.8959 166.2261 15.63404544132700
TEVEL-4                 
1 51063U 22002CH  24154.17951919  .00148975  00000+0  16276-2 0  9996
2 51063  97.3790 229.2950 0001219 185.8693 174.2551 15.62846143132690
TEVEL-2                 
1 51069U 22002CP  24154.17222797  .00152694  00000+0  16297-2 0  9993
2 51069  97.3773 229.2939 0001518 187.9034 172.2201 15.63434925132702
GREENCUBE               
1 53106U 22080B   24150.13546523 -.00000003  00000+0  00000+0 0  9990
2 53106  70.1363 199.1393 0007665 111.3674 248.7804  6.42557538 44049
MIET-AIS (RS28S)        
1 53377U 22096H   24154.02726409  .00833254  34873-3  13426-2 0  9991
2 53377  97.3798  75.4551 0009283 160.8570 199.3061 16.03510163102082
KAI-1 (RS26S)           
1 53378U 22096J   24154.14888386  .00115119  00000+0  10510-2 0  9993
2 53378  97.3963  72.2351 0004881 107.1260 253.0536 15.67484225101878
ISOI (RS19S)            
1 53381U 22096M   24153.95049202  .01505329  18017-2  12414-2 0  9993
2 53381  97.3738  76.4857 0009956 177.4280 182.7059 16.14357231102147
SIREN (RS30S)           
1 53384U 22096Q   24154.03242734  .00249411  00000+0  12002-2 0  9990
2 53384  97.3873  74.2750 0007469 135.6941 224.4926 15.81948291102002
CAS-5A (FO-118)         
1 54684U 22167C   24154.15568773  .00029250  00000+0  10273-2 0  9995
2 54684  97.6032 298.6390 0010950 195.6607 164.4295 15.29297691 82004
STRATOSAT-TK 1 (RS52S)  
1 57167U 23091B   24154.19923766  .00012425  00000+0  72643-3 0  9998
2 57167  97.6129 207.3148 0016487 166.1639 194.0047 15.11905087 51294
UMKA 1 (RS40S)          
1 57172U 23091G   24154.13144522  .00005836  00000+0  38866-3 0  9990
2 57172  97.6132 206.3306 0017531 167.6393 192.5268 15.07372841 51225
CUBESX-HSE 3 (RS42S)    
1 57178U 23091N   24154.16675560  .00008431  00000+0  54029-3 0  9993
2 57178  97.6162 206.7528 0018144 163.4933 196.6890 15.08646785 51249
MONITOR-4 (RS57S)       
1 57182U 23091S   24154.14972210  .00008306  00000+0  53867-3 0  9998
2 57182  97.6158 206.5703 0018482 164.0706 196.1107 15.08204885 51238
MONITOR-2 (RS39S)       
1 57184U 23091U   24154.16281581  .00005244  00000+0  34875-3 0  9992
2 57184  97.6158 206.7288 0014981 157.7138 202.4743 15.07506514 51249
SVYATOBOR 1 (RS60S)     
1 57187U 23091X   24154.20026280  .00006294  00000+0  40149-3 0  9990
2 57187  97.6163 207.1461 0014760 153.7904 206.4075 15.08966373 51277
VIZARD-METEO (RS38S)    
1 57189U 23091Z   24154.16933287  .00009027  00000+0  55370-3 0  9990
2 57189  97.6151 207.4609 0013608 152.6391 207.5558 15.10287921 51299
NANOZOND 1 (RS49S)      
1 57190U 23091AA  24154.19546826  .00011124  00000+0  63817-3 0  9990
2 57190  97.6129 207.9265 0012193 155.7868 204.3938 15.12668979 51330
POLYTECH-UNIVERSE 3 (R*)
1 57191U 23091AB  24154.16666643  .00005577  00000+0  37067-3 0  9991
2 57191  97.6121 206.4258 0020010 175.4418 184.6996 15.07429329 51237
UTMN 2 (RS27S)          
1 57203U 23091AP  24154.15551282  .00009203  00000+0  57142-3 0  9992
2 57203  97.6155 207.3232 0013956 152.6634 207.5333 15.09831494 51285
ARCCUBE 1 (RS25S)       
1 57205U 23091AR  24154.18361053  .00013769  00000+0  76657-3 0  9996
2 57205  97.6097 208.0030 0012263 157.7715 202.4050 15.13689220 51342
KUZGTU 1 (RS47S)        
1 57217U 23091AV  24154.17399560  .00007892  00000+0  50785-3 0  9996
2 57217  97.6134 206.6341 0018026 164.6362 195.5417 15.08515381 51242
HADES-D (SO-121)        
1 58567U 23174CY  24153.67786689  .00039851  00000+0  14434-2 0  9993
2 58567  97.4553 229.3761 0011526 274.1956  85.7966 15.28212175 31419
CUTE-1 (CO-55)          
1 27844U 03031E   24153.55410149  .00000487  00000+0  23455-3 0  9996
2 27844  98.6766 160.8013 0009614 182.6119 177.5011 14.23256982 85564
CUBESAT XI-IV (CO-57)   
1 27848U 03031J   24153.97439714  .00000428  00000+0  21055-3 0  9994
2 27848  98.6797 161.4696 0009219 197.8012 162.2844 14.22699832 85421
CUBESAT XI-V            
1 28895U 05043F   24153.90131613  .00002383  00000+0  42697-3 0  9999
2 28895  98.1990 289.7092 0016478  49.2918 310.9714 14.67659027992446
CUTE-1.7+APD II (CO-65) 
1 32785U 08021C   24154.17479130  .00005364  00000+0  47560-3 0  9996
2 32785  97.7526 119.6297 0011612  26.2678 333.9130 14.96581845873304
AAUSAT-II               
1 32788U 08021F   24153.94047614  .00018513  00000+0  94287-3 0  9999
2 32788  97.5934 134.1437 0004381 193.3661 166.7457 15.16836682876110
SEEDS II (CO-66)        
1 32791U 08021J   24153.43003140  .00008589  00000+0  63288-3 0  9992
2 32791  97.6887 124.6938 0005886  26.2961 333.8562 15.03560157874232
SWISSCUBE               
1 35932U 09051B   24154.21377429  .00001420  00000+0  31257-3 0  9995
2 35932  98.4736  37.2255 0007639  15.4462 344.6969 14.59042881780415
BEESAT-1                
1 35933U 09051C   24153.66709462  .00001269  00000+0  28204-3 0  9999
2 35933  98.4663  37.5973 0006277  30.9216 329.2351 14.58778738780444
ITUPSAT1                
1 35935U 09051E   24153.94518944  .00001199  00000+0  27304-3 0  9997
2 35935  98.4761  37.6734 0008625  32.9516 327.2218 14.57738338780075
TISAT 1                 
1 36799U 10035E   24153.62696157  .00008175  00000+0  62376-3 0  9997
2 36799  98.0945  42.3887 0002699 282.4675  77.6246 15.02281615754721
M-CUBED & EXP-1 PRIME   
1 37855U 11061F   24154.06725804  .00264679  00000+0  13162-2 0  9993
2 37855 101.6855 331.1838 0033930   7.9482 352.2300 15.80340808691133
AEROCUBE 4.5A           
1 38767U 12048K   24153.01375149  .00013914  00000+0  76168-3 0  9999
2 38767  64.6621   6.1768 0106114  24.0667 336.5358 15.09716944258020
AEROCUBE 4.5B           
1 38768U 12048L   24153.75914060  .00023905  00000+0  87986-3 0  9993
2 38768  64.6562 290.2694 0087143  10.9947 349.3057 15.24274826259073
STRAND-1                
1 39090U 13009E   24153.46091732  .00000468  00000+0  17562-3 0  9992
2 39090  98.3815 342.1814 0007825 304.4105  55.6341 14.36067848589989
BRITE-AUSTRIA           
1 39091U 13009F   24153.50369050  .00000300  00000+0  11848-3 0  9995
2 39091  98.3859 341.4931 0009439 311.3916  48.6458 14.35803102590017
NEE-01 PEGASO           
1 39151U 13018B   24153.99243759  .00003804  00000+0  44402-3 0  9996
2 39151  98.0341 270.9561 0016183  90.3807 269.9262 14.85690775599722
ESTCUBE 1               
1 39161U 13021C   24154.15973355  .00002554  00000+0  37497-3 0  9999
2 39161  97.8290 221.0817 0007550 279.0639  80.9717 14.76336147594913
POPACS 1                
1 39268U 13055D   24153.06764281  .00034096  00000+0  60028-3 0  9991
2 39268  80.9813 169.7287 0414487 144.4829 218.4756 14.90839042558134
POPACS 2                
1 39269U 13055E   24153.27198316  .00015219  00000+0  35061-3 0  9990
2 39269  81.0028 256.6573 0551973  11.5775 349.7521 14.56671226553284
POPACS 3                
1 39270U 13055F   24153.87648007  .00017403  00000+0  47560-3 0  9999
2 39270  81.0067 306.1857 0629572 150.2740 213.5842 14.36720820551464
ZACUBE-1 (TSHEPISOSAT)  
1 39417U 13066B   24153.46373295  .00003641  00000+0  38324-3 0  9990
2 39417  97.7328 109.7890 0049789 210.7177 149.1124 14.89094377569248
WNISAT-1                
1 39423U 13066H   24154.09966560  .00001319  00000+0  25901-3 0  9997
2 39423  97.6713 349.6472 0171261  56.9588 304.7931 14.55251272558458
TRITON-1                
1 39427U 13066M   24154.11533710  .00003292  00000+0  46693-3 0  9994
2 39427  97.8430  72.5896 0104228 130.0981 230.9422 14.73954200564185
DELFI-N3XT              
1 39428U 13066N   24153.35916810  .00005501  00000+0  70672-3 0  9995
2 39428  97.8390  72.1139 0102558 139.1458 221.7499 14.77895801563759
